[{"OBJECT_NAME":"HAWK-2C","OBJECT_ID":"2021-006CT","EPOCH":"2026-03-09T16:13:22.454976","MEAN_MOTION":15.33286436,"ECCENTRICITY":0.0006943,"INCLINATION":97.2417,"RA_OF_ASC_NODE":114.9961,"ARG_OF_PERICENTER":184.0877,"MEAN_ANOMALY":176.031,"EPHEMERIS_TYPE":0,"CLASSIFICATION_TYPE":"U","NORAD_CAT_ID":47502,"ELEMENT_SET_NO":999,"REV_AT_EPOCH":28424,"BSTAR":0.00025492914,"MEAN_MOTION_DOT":8.129e-5,"MEAN_MOTION_DDOT":0},{"OBJECT_NAME":"STARLINK-34896","OBJECT_ID":"2025-247Z","EPOCH":"2026-03-09T14:42:05.915808","MEAN_MOTION":15.30171297,"ECCENTRICITY":0.0001243,"INCLINATION":53.1588,"RA_OF_ASC_NODE":191.6684,"ARG_OF_PERICENTER":79.191,"MEAN_ANOMALY":280.9231,"EPHEMERIS_TYPE":0,"CLASSIFICATION_TYPE":"U","NORAD_CAT_ID":66288,"ELEMENT_SET_NO":999,"REV_AT_EPOCH":2102,"BSTAR":0.00094151,"MEAN_MOTION_DOT":0.00027604,"MEAN_MOTION_DDOT":0}]
